STARLINK-31240          
1 59041U 24038U   25211.23515217  .00004161  00000+0  16065-3 0  9995
2 59041  43.0021 200.1368 0001116 290.8842  69.1890 15.27578600 80791
STARLINK-31202          
1 59042U 24038V   25211.23885293  .00002136  00000+0  87159-4 0  9993
2 59042  43.0012 199.3091 0001252 279.3318  80.7392 15.27571140 80849
STARLINK-31234          
1 59043U 24038W   25211.03257869 -.00001474  00000+0 -44059-4 0  9992
2 59043  43.0024 201.1980 0001511 269.7152  90.3527 15.27564899 80580
STARLINK-31153          
1 59044U 24038X   25210.68378213  .00000527  00000+0  28677-4 0  9994
2 59044  43.0002 202.8719 0000837 272.5173  87.5583 15.27573517 80587
STARLINK-31241          
1 59045U 24038Y   25210.70948340  .00001888  00000+0  78127-4 0  9998
2 59045  43.0033 203.0721 0001569 290.1331  69.9351 15.27575616 80751
STARLINK-31205          
1 59046U 24038Z   25210.70176383  .00000656  00000+0  33375-4 0  9997
2 59046  43.0076 203.0120 0002867 270.3517  89.7006 15.27575077 80691
STARLINK-31265          
1 59074U 24041A   25211.19413327  .00001979  00000+0  81423-4 0  9994
2 59074  42.9972 127.2468 0000945 278.0148  82.0596 15.27581040 80256
STARLINK-31276          
1 59075U 24041B   25211.16201604  .00009221  00000+0  34461-3 0  9992
2 59075  43.0042 127.0065 0001301 239.0825 120.9899 15.27540785 80286
STARLINK-31259          
1 59076U 24041C   25210.18507299  .00001076  00000+0  48616-4 0  9991
2 59076  43.0017 132.5773 0001444 275.6164  84.4523 15.27577907 79042
STARLINK-31281          
1 59077U 24041D   25211.10432895  .00002344  00000+0  94649-4 0  9990
2 59077  43.0035 127.4375 0001247 276.3602  83.7107 15.27589801 80295
STARLINK-31274          
1 59078U 24041E   25211.06849581  .00002484  00000+0  99729-4 0  9999
2 59078  42.9992 128.0246 0001133 277.1608  82.9114 15.27589777 80234
STARLINK-31257          
1 59079U 24041F   25211.11717932  .00001321  00000+0  57500-4 0  9990
2 59079  42.9985 127.5266 0001135 260.6286  99.4437 15.27582366 80243
STARLINK-31299          
1 59080U 24041G   25211.18463308 -.00000420  00000+0 -57431-5 0  9999
2 59080  43.0019  29.4555 0001662 281.6966  78.3699 15.27583463 81403
STARLINK-31292          
1 59081U 24041H   25210.97742215  .00000602  00000+0  31408-4 0  9998
2 59081  43.0022 128.2010 0001294 265.2065  94.8639 15.27575581 80229
STARLINK-31286          
1 59082U 24041J   25211.17742920  .00001699  00000+0  71235-4 0  9994
2 59082  43.0007 127.1185 0001348 267.6365  92.4333 15.27582305 80253
STARLINK-31252          
1 59083U 24041K   25211.04053031  .00020478  00000+0  75101-3 0  9990
2 59083  43.0012  44.9208 0001485 278.1158  81.9525 15.27606815 81228
STARLINK-31261          
1 59084U 24041L   25210.15951867 -.00000668  00000+0 -14752-4 0  9993
2 59084  42.9965 133.2442 0001138 274.1680  85.9042 15.27580415 80131
