[{"OBJECT_NAME":"STARLINK-31240","OBJECT_ID":"2024-038U","EPOCH":"2025-07-30T05:38:37.147488","MEAN_MOTION":15.275786,"ECCENTRICITY":0.0001116,"INCLINATION":43.0021,"RA_OF_ASC_NODE":200.1368,"ARG_OF_PERICENTER":290.8842,"MEAN_ANOMALY":69.189,"EPHEMERIS_TYPE":0,"CLASSIFICATION_TYPE":"U","NORAD_CAT_ID":59041,"ELEMENT_SET_NO":999,"REV_AT_EPOCH":8079,"BSTAR":0.00016065,"MEAN_MOTION_DOT":4.161e-5,"MEAN_MOTION_DDOT":0},{"OBJECT_NAME":"STARLINK-31202","OBJECT_ID":"2024-038V","EPOCH":"2025-07-30T05:43:56.893152","MEAN_MOTION":15.2757114,"ECCENTRICITY":0.0001252,"INCLINATION":43.0012,"RA_OF_ASC_NODE":199.3091,"ARG_OF_PERICENTER":279.3318,"MEAN_ANOMALY":80.7392,"EPHEMERIS_TYPE":0,"CLASSIFICATION_TYPE":"U","NORAD_CAT_ID":59042,"ELEMENT_SET_NO":999,"REV_AT_EPOCH":8084,"BSTAR":8.7159e-5,"MEAN_MOTION_DOT":2.136e-5,"MEAN_MOTION_DDOT":0},{"OBJECT_NAME":"STARLINK-31234","OBJECT_ID":"2024-038W","EPOCH":"2025-07-30T00:46:54.798816","MEAN_MOTION":15.27564899,"ECCENTRICITY":0.0001511,"INCLINATION":43.0024,"RA_OF_ASC_NODE":201.198,"ARG_OF_PERICENTER":269.7152,"MEAN_ANOMALY":90.3527,"EPHEMERIS_TYPE":0,"CLASSIFICATION_TYPE":"U","NORAD_CAT_ID":59043,"ELEMENT_SET_NO":999,"REV_AT_EPOCH":8058,"BSTAR":-4.4059e-5,"MEAN_MOTION_DOT":-1.474e-5,"MEAN_MOTION_DDOT":0},{"OBJECT_NAME":"STARLINK-31153","OBJECT_ID":"2024-038X","EPOCH":"2025-07-29T16:24:38.776032","MEAN_MOTION":15.27573517,"ECCENTRICITY":8.37e-5,"INCLINATION":43.0002,"RA_OF_ASC_NODE":202.8719,"ARG_OF_PERICENTER":272.5173,"MEAN_ANOMALY":87.5583,"EPHEMERIS_TYPE":0,"CLASSIFICATION_TYPE":"U","NORAD_CAT_ID":59044,"ELEMENT_SET_NO":999,"REV_AT_EPOCH":8058,"BSTAR":2.8677e-5,"MEAN_MOTION_DOT":5.27e-6,"MEAN_MOTION_DDOT":0},{"OBJECT_NAME":"STARLINK-31241","OBJECT_ID":"2024-038Y","EPOCH":"2025-07-29T17:01:39.365760","MEAN_MOTION":15.27575616,"ECCENTRICITY":0.0001569,"INCLINATION":43.0033,"RA_OF_ASC_NODE":203.0721,"ARG_OF_PERICENTER":290.1331,"MEAN_ANOMALY":69.9351,"EPHEMERIS_TYPE":0,"CLASSIFICATION_TYPE":"U","NORAD_CAT_ID":59045,"ELEMENT_SET_NO":999,"REV_AT_EPOCH":8075,"BSTAR":7.8127e-5,"MEAN_MOTION_DOT":1.888e-5,"MEAN_MOTION_DDOT":0},{"OBJECT_NAME":"STARLINK-31205","OBJECT_ID":"2024-038Z","EPOCH":"2025-07-29T16:50:32.394912","MEAN_MOTION":15.27575077,"ECCENTRICITY":0.0002867,"INCLINATION":43.0076,"RA_OF_ASC_NODE":203.012,"ARG_OF_PERICENTER":270.3517,"MEAN_ANOMALY":89.7006,"EPHEMERIS_TYPE":0,"CLASSIFICATION_TYPE":"U","NORAD_CAT_ID":59046,"ELEMENT_SET_NO":999,"REV_AT_EPOCH":8069,"BSTAR":3.3375e-5,"MEAN_MOTION_DOT":6.56e-6,"MEAN_MOTION_DDOT":0},{"OBJECT_NAME":"STARLINK-31265","OBJECT_ID":"2024-041A","EPOCH":"2025-07-30T04:39:33.114528","MEAN_MOTION":15.2758104,"ECCENTRICITY":9.45e-5,"INCLINATION":42.9972,"RA_OF_ASC_NODE":127.2468,"ARG_OF_PERICENTER":278.0148,"MEAN_ANOMALY":82.0596,"EPHEMERIS_TYPE":0,"CLASSIFICATION_TYPE":"U","NORAD_CAT_ID":59074,"ELEMENT_SET_NO":999,"REV_AT_EPOCH":8025,"BSTAR":8.1423e-5,"MEAN_MOTION_DOT":1.979e-5,"MEAN_MOTION_DDOT":0},{"OBJECT_NAME":"STARLINK-31276","OBJECT_ID":"2024-041B","EPOCH":"2025-07-30T03:53:18.185856","MEAN_MOTION":15.27540785,"ECCENTRICITY":0.0001301,"INCLINATION":43.0042,"RA_OF_ASC_NODE":127.0065,"ARG_OF_PERICENTER":239.0825,"MEAN_ANOMALY":120.9899,"EPHEMERIS_TYPE":0,"CLASSIFICATION_TYPE":"U","NORAD_CAT_ID":59075,"ELEMENT_SET_NO":999,"REV_AT_EPOCH":8028,"BSTAR":0.00034461,"MEAN_MOTION_DOT":9.221e-5,"MEAN_MOTION_DDOT":0},{"OBJECT_NAME":"STARLINK-31259","OBJECT_ID":"2024-041C","EPOCH":"2025-07-29T04:26:30.306336","MEAN_MOTION":15.27577907,"ECCENTRICITY":0.0001444,"INCLINATION":43.0017,"RA_OF_ASC_NODE":132.5773,"ARG_OF_PERICENTER":275.6164,"MEAN_ANOMALY":84.4523,"EPHEMERIS_TYPE":0,"CLASSIFICATION_TYPE":"U","NORAD_CAT_ID":59076,"ELEMENT_SET_NO":999,"REV_AT_EPOCH":7904,"BSTAR":4.8616e-5,"MEAN_MOTION_DOT":1.076e-5,"MEAN_MOTION_DDOT":0},{"OBJECT_NAME":"STARLINK-31281","OBJECT_ID":"2024-041D","EPOCH":"2025-07-30T02:30:14.021280","MEAN_MOTION":15.27589801,"ECCENTRICITY":0.0001247,"INCLINATION":43.0035,"RA_OF_ASC_NODE":127.4375,"ARG_OF_PERICENTER":276.3602,"MEAN_ANOMALY":83.7107,"EPHEMERIS_TYPE":0,"CLASSIFICATION_TYPE":"U","NORAD_CAT_ID":59077,"ELEMENT_SET_NO":999,"REV_AT_EPOCH":8029,"BSTAR":9.4649e-5,"MEAN_MOTION_DOT":2.344e-5,"MEAN_MOTION_DDOT":0},{"OBJECT_NAME":"STARLINK-31274","OBJECT_ID":"2024-041E","EPOCH":"2025-07-30T01:38:38.037984","MEAN_MOTION":15.27589777,"ECCENTRICITY":0.0001133,"INCLINATION":42.9992,"RA_OF_ASC_NODE":128.0246,"ARG_OF_PERICENTER":277.1608,"MEAN_ANOMALY":82.9114,"EPHEMERIS_TYPE":0,"CLASSIFICATION_TYPE":"U","NORAD_CAT_ID":59078,"ELEMENT_SET_NO":999,"REV_AT_EPOCH":8023,"BSTAR":9.9729e-5,"MEAN_MOTION_DOT":2.484e-5,"MEAN_MOTION_DDOT":0},{"OBJECT_NAME":"STARLINK-31257","OBJECT_ID":"2024-041F","EPOCH":"2025-07-30T02:48:44.293248","MEAN_MOTION":15.27582366,"ECCENTRICITY":0.0001135,"INCLINATION":42.9985,"RA_OF_ASC_NODE":127.5266,"ARG_OF_PERICENTER":260.6286,"MEAN_ANOMALY":99.4437,"EPHEMERIS_TYPE":0,"CLASSIFICATION_TYPE":"U","NORAD_CAT_ID":59079,"ELEMENT_SET_NO":999,"REV_AT_EPOCH":8024,"BSTAR":5.75e-5,"MEAN_MOTION_DOT":1.321e-5,"MEAN_MOTION_DDOT":0},{"OBJECT_NAME":"STARLINK-31299","OBJECT_ID":"2024-041G","EPOCH":"2025-07-30T04:25:52.298112","MEAN_MOTION":15.27583463,"ECCENTRICITY":0.0001662,"INCLINATION":43.0019,"RA_OF_ASC_NODE":29.4555,"ARG_OF_PERICENTER":281.6966,"MEAN_ANOMALY":78.3699,"EPHEMERIS_TYPE":0,"CLASSIFICATION_TYPE":"U","NORAD_CAT_ID":59080,"ELEMENT_SET_NO":999,"REV_AT_EPOCH":8140,"BSTAR":-5.7431e-6,"MEAN_MOTION_DOT":-4.2e-6,"MEAN_MOTION_DDOT":0},{"OBJECT_NAME":"STARLINK-31292","OBJECT_ID":"2024-041H","EPOCH":"2025-07-29T23:27:29.273760","MEAN_MOTION":15.27575581,"ECCENTRICITY":0.0001294,"INCLINATION":43.0022,"RA_OF_ASC_NODE":128.201,"ARG_OF_PERICENTER":265.2065,"MEAN_ANOMALY":94.8639,"EPHEMERIS_TYPE":0,"CLASSIFICATION_TYPE":"U","NORAD_CAT_ID":59081,"ELEMENT_SET_NO":999,"REV_AT_EPOCH":8022,"BSTAR":3.1408e-5,"MEAN_MOTION_DOT":6.02e-6,"MEAN_MOTION_DDOT":0},{"OBJECT_NAME":"STARLINK-31286","OBJECT_ID":"2024-041J","EPOCH":"2025-07-30T04:15:29.882880","MEAN_MOTION":15.27582305,"ECCENTRICITY":0.0001348,"INCLINATION":43.0007,"RA_OF_ASC_NODE":127.1185,"ARG_OF_PERICENTER":267.6365,"MEAN_ANOMALY":92.4333,"EPHEMERIS_TYPE":0,"CLASSIFICATION_TYPE":"U","NORAD_CAT_ID":59082,"ELEMENT_SET_NO":999,"REV_AT_EPOCH":8025,"BSTAR":7.1235e-5,"MEAN_MOTION_DOT":1.699e-5,"MEAN_MOTION_DDOT":0},{"OBJECT_NAME":"STARLINK-31252","OBJECT_ID":"2024-041K","EPOCH":"2025-07-30T00:58:21.818784","MEAN_MOTION":15.27606815,"ECCENTRICITY":0.0001485,"INCLINATION":43.0012,"RA_OF_ASC_NODE":44.9208,"ARG_OF_PERICENTER":278.1158,"MEAN_ANOMALY":81.9525,"EPHEMERIS_TYPE":0,"CLASSIFICATION_TYPE":"U","NORAD_CAT_ID":59083,"ELEMENT_SET_NO":999,"REV_AT_EPOCH":8122,"BSTAR":0.00075101,"MEAN_MOTION_DOT":0.00020478,"MEAN_MOTION_DDOT":0},{"OBJECT_NAME":"STARLINK-31261","OBJECT_ID":"2024-041L","EPOCH":"2025-07-29T03:49:42.413088","MEAN_MOTION":15.27580415,"ECCENTRICITY":0.0001138,"INCLINATION":42.9965,"RA_OF_ASC_NODE":133.2442,"ARG_OF_PERICENTER":274.168,"MEAN_ANOMALY":85.9042,"EPHEMERIS_TYPE":0,"CLASSIFICATION_TYPE":"U","NORAD_CAT_ID":59084,"ELEMENT_SET_NO":999,"REV_AT_EPOCH":8013,"BSTAR":-1.4752e-5,"MEAN_MOTION_DOT":-6.68e-6,"MEAN_MOTION_DDOT":0}]
